[Satellite]
VERSION=1.1
NAME=RESURS-DK 1
NICKNAME=RESURS-DK 1
TLE1=1 29228U 06021A   22342.46820147  .00001702  00000+0  13105-3 0  9999
TLE2=2 29228  69.9362  45.4002 0004000 198.4317 161.6700 15.03707807908536
STATUS=0
